{"fetched_at":"2026-07-12T05:52:56.048Z","source":"https://celestrak.org/NORAD/elements/gp.php?NAME=GLOBAL&FORMAT=JSON","constellation":"blacksky-gen2","records":[{"OBJECT_NAME":"GLOBAL-2","OBJECT_ID":"2018-099BG","EPOCH":"2026-07-11T14:44:19.254336","CLASSIFICATION_TYPE":"U","MEAN_MOTION":15.08814097,"ECCENTRICITY":0.0007628,"INCLINATION":97.3549,"RA_OF_ASC_NODE":228.1117,"ARG_OF_PERICENTER":76.9899,"MEAN_ANOMALY":283.2181,"EPHEMERIS_TYPE":0,"NORAD_CAT_ID":43812,"ELEMENT_SET_NO":999,"REV_AT_EPOCH":41559,"BSTAR":0.000091054,"MEAN_MOTION_DOT":0.00001373,"MEAN_MOTION_DDOT":0},{"OBJECT_NAME":"GLOBAL-14","OBJECT_ID":"2021-106A","EPOCH":"2026-07-11T05:32:55.871808","CLASSIFICATION_TYPE":"U","MEAN_MOTION":15.51690431,"ECCENTRICITY":0.00170844,"INCLINATION":42.0023,"RA_OF_ASC_NODE":148.0639,"ARG_OF_PERICENTER":197.5247,"MEAN_ANOMALY":162.501,"EPHEMERIS_TYPE":0,"NORAD_CAT_ID":49469,"ELEMENT_SET_NO":999,"REV_AT_EPOCH":26186,"BSTAR":0.00027424978,"MEAN_MOTION_DOT":0.00016564,"MEAN_MOTION_DDOT":0},{"OBJECT_NAME":"GLOBAL-12","OBJECT_ID":"2021-115BA","EPOCH":"2026-07-10T14:34:24.220992","CLASSIFICATION_TYPE":"U","MEAN_MOTION":15.55134134,"ECCENTRICITY":0.00026761,"INCLINATION":53.1957,"RA_OF_ASC_NODE":291.807,"ARG_OF_PERICENTER":67.4277,"MEAN_ANOMALY":292.7018,"EPHEMERIS_TYPE":0,"NORAD_CAT_ID":49772,"ELEMENT_SET_NO":999,"REV_AT_EPOCH":25954,"BSTAR":0.00040417221,"MEAN_MOTION_DOT":0.00027333,"MEAN_MOTION_DDOT":0},{"OBJECT_NAME":"GLOBAL-13","OBJECT_ID":"2021-115BB","EPOCH":"2026-07-11T14:41:58.831008","CLASSIFICATION_TYPE":"U","MEAN_MOTION":15.47016684,"ECCENTRICITY":0.0000994,"INCLINATION":53.1984,"RA_OF_ASC_NODE":298.3929,"ARG_OF_PERICENTER":153.6296,"MEAN_ANOMALY":206.4764,"EPHEMERIS_TYPE":0,"NORAD_CAT_ID":49773,"ELEMENT_SET_NO":999,"REV_AT_EPOCH":25954,"BSTAR":0.00023739,"MEAN_MOTION_DOT":0.0001177,"MEAN_MOTION_DDOT":0},{"OBJECT_NAME":"GLOBAL-16","OBJECT_ID":"2021-120B","EPOCH":"2026-07-11T15:21:02.577024","CLASSIFICATION_TYPE":"U","MEAN_MOTION":15.51370265,"ECCENTRICITY":0.0011713,"INCLINATION":41.9948,"RA_OF_ASC_NODE":267.6481,"ARG_OF_PERICENTER":52.136,"MEAN_ANOMALY":308.0542,"EPHEMERIS_TYPE":0,"NORAD_CAT_ID":49950,"ELEMENT_SET_NO":999,"REV_AT_EPOCH":25864,"BSTAR":0.0002546,"MEAN_MOTION_DOT":0.00015125,"MEAN_MOTION_DDOT":0},{"OBJECT_NAME":"GLOBAL-18","OBJECT_ID":"2022-034B","EPOCH":"2026-07-10T06:12:31.501152","CLASSIFICATION_TYPE":"U","MEAN_MOTION":15.47079635,"ECCENTRICITY":0.00043087,"INCLINATION":52.98,"RA_OF_ASC_NODE":146.3065,"ARG_OF_PERICENTER":11.3992,"MEAN_ANOMALY":348.711,"EPHEMERIS_TYPE":0,"NORAD_CAT_ID":52196,"ELEMENT_SET_NO":999,"REV_AT_EPOCH":24053,"BSTAR":0.00030601834,"MEAN_MOTION_DOT":0.00015344,"MEAN_MOTION_DDOT":0},{"OBJECT_NAME":"GLOBAL-19","OBJECT_ID":"2023-041B","EPOCH":"2026-07-09T22:51:50.896224","CLASSIFICATION_TYPE":"U","MEAN_MOTION":15.38589343,"ECCENTRICITY":0.00087792,"INCLINATION":42.0016,"RA_OF_ASC_NODE":69.0757,"ARG_OF_PERICENTER":183.2971,"MEAN_ANOMALY":176.7812,"EPHEMERIS_TYPE":0,"NORAD_CAT_ID":55982,"ELEMENT_SET_NO":999,"REV_AT_EPOCH":18543,"BSTAR":0.00025562462,"MEAN_MOTION_DOT":0.00009716,"MEAN_MOTION_DDOT":0},{"OBJECT_NAME":"GLOBAL-5","OBJECT_ID":"2023-041C","EPOCH":"2026-07-11T00:34:32.882016","CLASSIFICATION_TYPE":"U","MEAN_MOTION":15.38622864,"ECCENTRICITY":0.0007823,"INCLINATION":42.0016,"RA_OF_ASC_NODE":62.3503,"ARG_OF_PERICENTER":186.5979,"MEAN_ANOMALY":173.4759,"EPHEMERIS_TYPE":0,"NORAD_CAT_ID":55983,"ELEMENT_SET_NO":999,"REV_AT_EPOCH":18560,"BSTAR":0.00022309376,"MEAN_MOTION_DOT":0.00008451,"MEAN_MOTION_DDOT":0}]}
